NORAD_CAT_ID,OBJECT_NAME,OBJECT_TYPE,EPOCH,MEAN_MOTION,ECCENTRICITY,INCLINATION,RA_OF_ASC_NODE,ARG_OF_PERICENTER,MEAN_ANOMALY,BSTAR,MEAN_MOTION_DOT,MEAN_MOTION_DDOT,TLE_LINE0,TLE_LINE1,TLE_LINE2,SEMIMAJOR_AXIS,PERIOD,APOGEE,PERIGEE,DECAYED
50202.0,STARLINK-3256,PAYLOAD,2023-07-07 17:46:46,15.0884857,9.89e-05,53.2177,300.3247,79.8794,280.231,7.2321e-05,8.64e-06,0.0,0 STARLINK-3256,1 50202U 21125AY  23188.74082161  .00000864  00000-0  72321-4 0  9998,2 50202  53.2177 300.3247 0000989  79.8794 280.2310 15.08848570 88913,6917.854,95.437,540.403,539.035,0.0
50202.0,STARLINK-3256,PAYLOAD,2023-07-08 08:05:16,15.08841464,0.0001214,53.2174,297.648,87.755,272.3582,-4.8432e-05,-1.059e-05,0.0,0 STARLINK-3256,1 50202U 21125AY  23189.33699097 -.00001059  00000-0 -48432-4 0  9991,2 50202  53.2174 297.6480 0001214  87.7550 272.3582 15.08841464 89006,6917.876,95.437,540.581,538.901,0.0
50202.0,STARLINK-3256,PAYLOAD,2023-07-09 12:42:13,15.08826828,9.17e-05,53.217,292.297,100.6851,259.4244,-2.0793e-05,-6.18e-06,0.0,0 STARLINK-3256,1 50202U 21125AY  23190.52932204 -.00000618  00000-0 -20793-4 0  9994,2 50202  53.2170 292.2970 0000917 100.6851 259.4244 15.08826828 89182,6917.921,95.438,540.42,539.151,0.0
50202.0,STARLINK-3256,PAYLOAD,2023-07-09 23:49:54,15.08835808,8.42e-05,53.217,290.2151,85.7728,274.336,3.6327e-05,2.9e-06,0.0,0 STARLINK-3256,1 50202U 21125AY  23190.99299603  .00000290  00000-0  36327-4 0  9998,2 50202  53.2170 290.2151 0000842  85.7728 274.3360 15.08835808 89255,6917.893,95.438,540.341,539.176,0.0
50202.0,STARLINK-3256,PAYLOAD,2023-07-10 12:32:59,15.08843463,8.64e-05,53.2171,287.8359,89.8678,270.2413,8.0638e-05,9.96e-06,0.0,0 STARLINK-3256,1 50202U 21125AY  23191.52291105  .00000996  00000-0  80638-4 0  9994,2 50202  53.2171 287.8359 0000864  89.8678 270.2413 15.08843463 89330,6917.87,95.437,540.333,539.137,0.0
50202.0,STARLINK-3256,PAYLOAD,2023-07-10 18:54:31,15.08850019,9.4e-05,53.2172,286.6465,84.4553,275.6546,0.00011959,1.617e-05,0.0,0 STARLINK-3256,1 50202U 21125AY  23191.78786507  .00001617  00000-0  11959-3 0  9997,2 50202  53.2172 286.6465 0000940  84.4553 275.6546 15.08850019 89379,6917.85,95.437,540.365,539.064,0.0
50202.0,STARLINK-3256,PAYLOAD,2023-07-11 06:02:14,15.08827939,8.61e-05,53.2174,284.5651,67.6722,292.4361,8.0555e-05,9.94e-06,0.0,0 STARLINK-3256,1 50202U 21125AY  23192.25156145  .00000994  00000-0  80555-4 0  9995,2 50202  53.2174 284.5651 0000861  67.6722 292.4361 15.08827939 89443,6917.917,95.438,540.378,539.187,0.0
50202.0,STARLINK-3256,PAYLOAD,2023-07-11 23:31:28,15.08842785,0.0001031,53.2172,281.294,82.4096,277.7013,9.7788e-05,1.269e-05,0.0,0 STARLINK-3256,1 50202U 21125AY  23192.98019265  .00001269  00000-0  97788-4 0  9998,2 50202  53.2172 281.2940 0001031  82.4096 277.7013 15.08842785 89553,6917.872,95.437,540.45,539.024,0.0
50202.0,STARLINK-3256,PAYLOAD,2023-07-13 12:05:21,15.08838327,9.96e-05,53.2168,274.4547,91.9893,268.1213,2.5217e-06,-2.48e-06,0.0,0 STARLINK-3256,1 50202U 21125AY  23194.50371707 -.00000248  00000-0  25217-5 0  9996,2 50202  53.2168 274.4547 0000996  91.9893 268.1213 15.08838327 89782,6917.886,95.438,540.44,539.061,0.0
50202.0,STARLINK-3256,PAYLOAD,2023-07-14 21:28:26,15.08843865,0.0001039,53.217,268.2099,91.0345,269.0767,0.00011195,1.495e-05,0.0,0 STARLINK-3256,1 50202U 21125AY  23195.89475207  .00001495  00000-0  11195-3 0  9991,2 50202  53.2170 268.2099 0001039  91.0345 269.0767 15.08843865 89990,6917.869,95.437,540.452,539.015,0.0
50202.0,STARLINK-3256,PAYLOAD,2023-07-15 16:33:03,15.08854839,0.0001146,53.2172,264.6415,100.1942,259.9179,0.00022328,3.269e-05,0.0,0 STARLINK-3256,1 50202U 21125AY  23196.68962028  .00003269  00000-0  22328-3 0  9992,2 50202  53.2172 264.6415 0001146 100.1942 259.9179 15.08854839 90112,6917.835,95.437,540.493,538.907,0.0
50202.0,STARLINK-3256,PAYLOAD,2023-07-16 03:40:47,15.08821548,9.13e-05,53.2176,262.5599,108.6396,251.4695,-9.5196e-05,-1.802e-05,0.0,0 STARLINK-3256,1 50202U 21125AY  23197.15333263 -.00001802  00000-0 -95196-4 0  9995,2 50202  53.2176 262.5599 0000913 108.6396 251.4695 15.08821548 90181,6917.937,95.439,540.433,539.17,0.0
50202.0,STARLINK-3256,PAYLOAD,2023-07-16 13:13:05,15.08829564,0.0001163,53.2165,260.7752,97.3441,262.7684,-0.00013383,-2.416e-05,0.0,0 STARLINK-3256,1 50202U 21125AY  23197.55076242 -.00002416  00000-0 -13383-3 0  9999,2 50202  53.2165 260.7752 0001163  97.3441 262.7684 15.08829564 90249,6917.912,95.438,540.582,538.973,0.0
50202.0,STARLINK-3256,PAYLOAD,2023-07-17 09:53:06,15.08844311,0.0001098,53.2156,256.9091,97.1359,262.9758,9.6257e-05,1.245e-05,0.0,0 STARLINK-3256,1 50202U 21125AY  23198.41187885  .00001245  00000-0  96257-4 0  9990,2 50202  53.2156 256.9091 0001098  97.1359 262.9758 15.08844311 90370,6917.867,95.437,540.492,538.973,0.0
50202.0,STARLINK-3256,PAYLOAD,2023-07-18 16:05:25,15.0885462,0.0001052,53.2139,251.259,94.7358,265.3754,0.00047055,7.212e-05,0.0,0 STARLINK-3256,1 50202U 21125AY  23199.67043888  .00007212  00000-0  47055-3 0  9994,2 50202  53.2139 251.2590 0001052  94.7358 265.3754 15.08854620 90563,6917.836,95.437,540.428,538.973,0.0
50202.0,STARLINK-3256,PAYLOAD,2023-07-19 09:34:41,15.08834018,0.0001426,53.2146,247.9896,57.2273,302.8857,4.7683e-05,4.71e-06,0.0,0 STARLINK-3256,1 50202U 21125AY  23200.39908823  .00000471  00000-0  47683-4 0  9993,2 50202  53.2146 247.9896 0001426  57.2273 302.8857 15.08834018 90679,6917.899,95.438,540.75,538.777,0.0
50202.0,STARLINK-3256,PAYLOAD,2023-07-20 14:11:37,15.0885226,0.0001162,53.2149,242.6333,78.6869,281.4254,0.00059026,9.122e-05,0.0,0 STARLINK-3256,1 50202U 21125AY  23201.59140439  .00009122  00000-0  59026-3 0  9992,2 50202  53.2149 242.6333 0001162  78.6869 281.4254 15.08852260 90857,6917.843,95.437,540.512,538.904,0.0
50202.0,STARLINK-3256,PAYLOAD,2023-07-21 14:02:23,15.08853456,0.0001204,53.2149,238.1751,83.8755,276.2374,0.00032269,4.853e-05,0.0,0 STARLINK-3256,1 50202U 21125AY  23202.58499976  .00004853  00000-0  32269-3 0  9991,2 50202  53.2149 238.1751 0001204  83.8755 276.2374 15.08853456 91001,6917.839,95.437,540.537,538.871,0.0
50202.0,STARLINK-3256,PAYLOAD,2023-07-24 02:27:03,15.08837258,0.0001185,53.215,226.8749,87.9606,272.1522,0.00012243,1.661e-05,0.0,0 STARLINK-3256,1 50202U 21125AY  23205.10212785  .00001661  00000-0  12243-3 0  9997,2 50202  53.2150 226.8749 0001185  87.9606 272.1522 15.08837258 91868,6917.889,95.438,540.574,538.934,0.0
50202.0,STARLINK-3256,PAYLOAD,2023-07-25 10:14:46,15.08839699,0.0001197,53.2151,220.9273,86.0905,274.0224,8.9323e-05,1.134e-05,0.0,0 STARLINK-3256,1 50202U 21125AY  23206.42692937  .00001134  00000-0  89323-4 0  9993,2 50202  53.2151 220.9273 0001197  86.0905 274.0224 15.08839699 92065,6917.881,95.438,540.574,538.918,0.0
50202.0,STARLINK-3256,PAYLOAD,2023-07-26 10:05:33,15.08843192,0.0001204,53.2146,216.4663,86.2666,273.8463,0.00015884,2.241e-05,0.0,0 STARLINK-3256,1 50202U 21125AY  23207.42052936  .00002241  00000-0  15884-3 0  9993,2 50202  53.2146 216.4663 0001204  86.2666 273.8463 15.08843192 92219,6917.871,95.437,540.569,538.903,0.0
50202.0,STARLINK-3256,PAYLOAD,2023-07-27 09:56:20,15.08843662,0.0001215,53.2146,212.0062,82.2579,277.8551,0.00011495,1.542e-05,0.0,0 STARLINK-3256,1 50202U 21125AY  23208.41412874  .00001542  00000-0  11495-3 0  9991,2 50202  53.2146 212.0062 0001215  82.2579 277.8551 15.08843662 91881,6917.869,95.437,540.575,538.894,0.0
50202.0,STARLINK-3256,PAYLOAD,2023-07-27 11:31:43,15.08844883,0.0001227,53.2147,211.7092,82.3695,277.7436,0.00012818,1.753e-05,0.0,0 STARLINK-3256,1 50202U 21125AY  23208.48036795  .00001753  00000-0  12818-3 0  9996,2 50202  53.2147 211.7092 0001227  82.3695 277.7436 15.08844883 92376,6917.865,95.437,540.579,538.882,0.0
50202.0,STARLINK-3256,PAYLOAD,2023-07-28 00:14:49,15.08837138,0.0001307,53.2155,209.3311,78.7174,281.3965,3.0322e-05,1.95e-06,0.0,0 STARLINK-3256,1 50202U 21125AY  23209.01029358  .00000195  00000-0  30322-4 0  9993,2 50202  53.2155 209.3311 0001307  78.7174 281.3965 15.08837138 91970,6917.889,95.438,540.658,538.85,0.0
50202.0,STARLINK-3256,PAYLOAD,2023-07-28 11:22:31,15.08838783,0.0001273,53.216,207.249,81.2128,278.9008,1.8066e-05,0.0,0.0,0 STARLINK-3256,1 50202U 21125AY  23209.47397237  .00000000  00000-0  18066-4 0  9993,2 50202  53.2160 207.2490 0001273  81.2128 278.9008 15.08838783 92520,6917.884,95.438,540.63,538.868,0.0
50202.0,STARLINK-3256,PAYLOAD,2023-07-29 09:37:54,15.08839979,0.0001248,53.2159,203.0847,90.8367,269.2768,4.1434e-05,3.72e-06,0.0,0 STARLINK-3256,1 50202U 21125AY  23210.40133087  .00000372  00000-0  41434-4 0  9996,2 50202  53.2159 203.0847 0001248  90.8367 269.2768 15.08839979 92187,6917.88,95.438,540.609,538.882,0.0
50202.0,STARLINK-3256,PAYLOAD,2023-07-30 15:50:14,15.08836367,0.0001313,53.2165,197.4352,89.822,270.2923,5.7624e-05,6.29e-06,0.0,0 STARLINK-3256,1 50202U 21125AY  23211.65989539  .00000629  00000-0  57624-4 0  9998,2 50202  53.2165 197.4352 0001313  89.8220 270.2923 15.08836367 92374,6917.891,95.438,540.665,538.848,0.0
50202.0,STARLINK-3256,PAYLOAD,2023-07-31 22:02:34,15.08837752,0.0001304,53.2166,191.785,91.8502,268.2639,-1.7132e-05,-5.61e-06,0.0,0 STARLINK-3256,1 50202U 21125AY  23212.91845864 -.00000561  00000-0 -17132-4 0  9997,2 50202  53.2166 191.7850 0001304  91.8502 268.2639 15.08837752 92562,6917.887,95.438,540.654,538.85,0.0
50202.0,STARLINK-3256,PAYLOAD,2023-08-02 05:50:17,15.08841672,0.0001324,53.2169,185.8381,94.1277,265.9866,8.5978e-05,1.081e-05,0.0,0 STARLINK-3256,1 50202U 21125AY  23214.24325823  .00001081  00000-0  85978-4 0  9992,2 50202  53.2169 185.8381 0001324  94.1277 265.9866 15.08841672 92769,6917.875,95.437,540.656,538.824,0.0
50202.0,STARLINK-3256,PAYLOAD,2023-08-03 07:16:27,15.08844869,0.000127,53.2162,181.0799,88.4064,271.7074,0.00015307,2.149e-05,0.0,0 STARLINK-3256,1 50202U 21125AY  23215.30309747  .00002149  00000-0  15307-3 0  9991,2 50202  53.2162 181.0799 0001270  88.4064 271.7074 15.08844869 92928,6917.866,95.437,540.609,538.852,0.0
